{
    "links": {
        "self": "http://www.neowsapp.com/rest/v1/neo/3774692?api_key=iIulBulltgU6a56xZRHN4H3l9WmuAYTsLGpBGhQ2"
    },
    "id": "3774692",
    "neo_reference_id": "3774692",
    "name": "(2017 KJ3)",
    "designation": "2017 KJ3",
    "nasa_jpl_url": "http://ssd.jpl.nasa.gov/sbdb.cgi?sstr=3774692",
    "absolute_magnitude_h": 24.4,
    "estimated_diameter": {
        "kilometers": {
            "estimated_diameter_min": 0.0350392641,
            "estimated_diameter_max": 0.0783501764
        },
        "meters": {
            "estimated_diameter_min": 35.0392641108,
            "estimated_diameter_max": 78.3501764334
        },
        "miles": {
            "estimated_diameter_min": 0.0217723826,
            "estimated_diameter_max": 0.0486845275
        },
        "feet": {
            "estimated_diameter_min": 114.9582192654,
            "estimated_diameter_max": 257.0543928497
        }
    },
    "is_potentially_hazardous_asteroid": false,
    "close_approach_data": [
        {
            "close_approach_date": "1942-05-09",
            "close_approach_date_full": "1942-May-09 19:50",
            "epoch_date_close_approach": -872482200000,
            "relative_velocity": {
                "kilometers_per_second": "20.1038531182",
                "kilometers_per_hour": "72373.8712253897",
                "miles_per_hour": "44970.3090400206"
            },
            "miss_distance": {
                "astronomical": "0.3049419296",
                "lunar": "118.6224106144",
                "kilometers": "45618663.141849952",
                "miles": "28346122.8491632576"
            },
            "orbiting_body": "Earth"
        },
        {
            "close_approach_date": "2017-06-03",
            "close_approach_date_full": "2017-Jun-03 08:43",
            "epoch_date_close_approach": 1496479380000,
            "relative_velocity": {
                "kilometers_per_second": "11.2672182057",
                "kilometers_per_hour": "40561.9855405546",
                "miles_per_hour": "25203.6404043518"
            },
            "miss_distance": {
                "astronomical": "0.0283995123",
                "lunar": "11.0474102847",
                "kilometers": "4248506.549118801",
                "miles": "2639899.5558534138"
            },
            "orbiting_body": "Earth"
        }
    ],
    "orbital_data": {
        "orbit_id": "10",
        "orbit_determination_date": "2018-02-10 07:09:01",
        "first_observation_date": "2017-05-18",
        "last_observation_date": "2017-05-30",
        "data_arc_in_days": 12,
        "observations_used": 59,
        "orbit_uncertainty": "7",
        "minimum_orbit_intersection": ".0178393",
        "jupiter_tisserand_invariant": "3.950",
        "epoch_osculation": "2459000.5",
        "eccentricity": ".4819352469883315",
        "semi_major_axis": "1.766790456374203",
        "inclination": "10.25124890201381",
        "ascending_node_longitude": "65.51653668633465",
        "orbital_period": "857.7801538079223",
        "perihelion_distance": ".9153118614048744",
        "perihelion_argument": "232.3078447996601",
        "aphelion_distance": "2.618269051343531",
        "perihelion_time": "2458802.012754537522",
        "mean_anomaly": "83.30270646771436",
        "mean_motion": ".4196879566423412",
        "equinox": "J2000",
        "orbit_class": {
            "orbit_class_type": "APO",
            "orbit_class_description": "Near-Earth asteroid orbits which cross the Earth’s orbit similar to that of 1862 Apollo",
            "orbit_class_range": "a (semi-major axis) > 1.0 AU; q (perihelion) < 1.017 AU"
        }
    },
    "is_sentry_object": false
}